ORBCOMM FM103           
1 40091U 14040F   24254.46999393  .00003329  00000+0  76968-3 0  9997
2 40091  47.0040 257.8205 0001273  49.2119 310.8877 14.57028570540359
ORBCOMM FM114           
1 41179U 15081A   24254.49908882  .00004767  00000+0  10844-2 0  9994
2 41179  47.0006 166.8830 0001547 143.0728 217.0264 14.57083660463718
ORBCOMM FM119           
1 41180U 15081B   24254.81806389  .00003257  00000+0  75394-3 0  9996
2 41180  46.9995  74.6110 0001943 224.1083 135.9647 14.57010505464966
ORBCOMM FM105           
1 41181U 15081C   24254.18231670  .00001904  00000+0  58999-3 0  9991
2 41181  47.0020  55.8257 0001706 168.3936 191.6983 14.44620933460364
ORBCOMM FM110           
1 41182U 15081D   24254.47539566  .00005158  00000+0  11705-2 0  9997
2 41182  46.9996 166.3814 0001911 308.4237  51.6476 14.57075132463714
ORBCOMM FM118           
1 41183U 15081E   24254.79614433  .00004188  00000+0  95658-3 0  9992
2 41183  47.0022 165.2068 0002388 314.5209  45.5481 14.57118089463764
ORBCOMM FM112           
1 41184U 15081F   24253.90364824  .00003808  00000+0  87526-3 0  9994
2 41184  46.9973  78.1183 0002078 195.5440 164.5381 14.57015756464824
ORBCOMM FM113           
1 41185U 15081G   24253.81221020  .00004317  00000+0  98781-3 0  9996
2 41185  46.9994  78.8350 0002023 217.2517 142.8228 14.56977520464743
